     2.10           GLONASS NAV DATA                        RINEX VERSION / TYPE
SPIDER V4,0,0,3554                      2015 03 24 01:48    PGM / RUN BY / DATE 
  2015     3     2   -1.257285475731e-008                    CORR TO SYSTEM TIME 
    16                                                      LEAP SECONDS        
                                                            END OF HEADER       
14 15 03 02 02 15  0.0 1.374958083034D-04 3.637978807092D-12 7.200000000000D+03
    1.855133251953D+04 1.251077651978D-01 1.862645149231D-09 0.000000000000D+00
   -1.725669482422D+04-4.140548706055D-01-3.725290298462D-09-7.000000000000D+00
    2.622353515625D+03-3.588395118713D+00 9.313225746155D-10 0.000000000000D+00
 8 15 03 02 02 15  0.0-2.638157457113D-05 0.000000000000D+00 7.200000000000D+03
    4.614512695313D+03-2.780239105225D+00-9.313225746155D-10 0.000000000000D+00
    1.259526562500D+04-1.030727386475D+00-0.000000000000D+00 6.000000000000D+00
    2.173761425781D+04 1.191523551941D+00-2.793967723846D-09 0.000000000000D+00
 1 15 03 02 02 15  0.0-1.558195799589D-04 0.000000000000D+00 7.200000000000D+03
    2.012081640625D+04-1.257278442383D+00-9.313225746155D-10 0.000000000000D+00
    1.204156347656D+04-5.638961791992D-01-9.313225746155D-10 1.000000000000D+00
    1.001653759766D+04 3.203553199768D+00-9.313225746155D-10 0.000000000000D+00
 2 15 03 02 02 15  0.0 1.210356131196D-04 1.818989403546D-12 7.200000000000D+03
    2.391270996094D+04 1.054927825928D+00-9.313225746155D-10 0.000000000000D+00
    4.430710449219D+03 1.958923339844D-01-9.313225746155D-10-4.000000000000D+00
   -7.718267578125D+03 3.364639282227D+00 9.313225746155D-10 0.000000000000D+00
15 15 03 02 02 15  0.0 4.005804657936D-05 9.094947017729D-13 7.200000000000D+03
    7.922976562500D+03 1.708301544189D+00 1.862645149231D-09 0.000000000000D+00
   -1.695130615234D+04-1.665727615356D+00-3.725290298462D-09 0.000000000000D+00
    1.740076123047D+04-2.391421318054D+00-0.000000000000D+00 0.000000000000D+00
17 15 03 02 02 15  0.0 1.507950946689D-04 1.818989403546D-12 7.200000000000D+03
    6.267835937500D+03 3.480615615845D-01 1.862645149231D-09 0.000000000000D+00
   -1.568764697266D+04 2.594664573669D+00-3.725290298462D-09 4.000000000000D+00
    1.915675781250D+04 2.011382102966D+00-9.313225746155D-10 0.000000000000D+00
23 15 03 02 02 15  0.0 3.151129931211D-05-3.637978807092D-12 7.200000000000D+03
    9.774864257813D+03 4.755706787109D-01-1.862645149231D-09 0.000000000000D+00
    1.950169580078D+04 1.754841804504D+00 0.000000000000D+00 3.000000000000D+00
    1.322240673828D+04-2.939493179321D+00-1.862645149231D-09 0.000000000000D+00
24 15 03 02 02 15  0.0-1.217806711793D-04-0.000000000000D+00 7.200000000000D+03
    1.132019726563D+04 5.891847610474D-01 0.000000000000D+00 0.000000000000D+00
    3.589349609375D+03 3.038340568542D+00-1.862645149231D-09 2.000000000000D+00
    2.256012548828D+04-7.776489257813D-01-1.862645149231D-09 0.000000000000D+00
14 15 03 02 02 45  0.0 1.375032588840D-04 3.637978807092D-12 9.000000000000D+03
    1.816207861328D+04-5.269241333008D-01 9.313225746155D-10 0.000000000000D+00
   -1.744624023438D+04 2.330598831177D-01-3.725290298462D-09-7.000000000000D+00
   -3.854764160156D+03-3.561479568481D+00 1.862645149231D-09 0.000000000000D+00
 8 15 03 02 02 45  0.0-2.638064324856D-05 0.000000000000D+00 9.000000000000D+03
   -6.931240234375D+02-3.070778846741D+00-0.000000000000D+00 0.000000000000D+00
    1.106296923828D+04-6.504583358765D-01 0.000000000000D+00 6.000000000000D+00
    2.301820849609D+04 2.222614288330D-01-2.793967723846D-09 0.000000000000D+00
 1 15 03 02 02 45  0.0-1.558186486363D-04 0.000000000000D+00 9.000000000000D+03
    1.713960546875D+04-2.036348342896D+00-9.313225746155D-10 0.000000000000D+00
    1.103221093750D+04-5.177173614502D-01-9.313225746155D-10 1.000000000000D+00
    1.532065673828D+04 2.651614189148D+00-1.862645149231D-09 0.000000000000D+00
 2 15 03 02 02 45  0.0 1.210393384099D-04 1.818989403546D-12 9.000000000000D+03
    2.508930224609D+04 2.317991256714D-01-9.313225746155D-10 0.000000000000D+00
    4.460565429688D+03-1.267290115356D-01-9.313225746155D-10-4.000000000000D+00
   -1.441988281250D+03 3.563742637634D+00 0.000000000000D+00 0.000000000000D+00
15 15 03 02 02 45  0.0 4.006084054708D-05 9.094947017729D-13 9.000000000000D+03
    1.035341552734D+04 9.900989532471D-01 1.862645149231D-09 0.000000000000D+00
   -1.975797265625D+04-1.405736923218D+00-4.656612873077D-09 0.000000000000D+00
    1.248251757813D+04-3.037904739380D+00 0.000000000000D+00 0.000000000000D+00
17 15 03 02 02 45  0.0 1.507988199592D-04 1.818989403546D-12 9.000000000000D+03
    7.338514648438D+03 8.482017517090D-01 9.313225746155D-10 0.000000000000D+00
   -1.071395068359D+04 2.881897926331D+00-2.793967723846D-09 4.000000000000D+00
    2.199305615234D+04 1.119681358337D+00-9.313225746155D-10 0.000000000000D+00
23 15 03 02 02 45  0.0 3.150478005409D-05-3.637978807092D-12 9.000000000000D+03
    1.067655371094D+04 4.846801757813D-01-1.862645149231D-09 0.000000000000D+00
    2.192352441406D+04 9.220561981201D-01 9.313225746155D-10 3.000000000000D+00
    7.488512695313D+03-3.390134811401D+00-1.862645149231D-09 0.000000000000D+00
24 15 03 02 02 45  0.0-1.217741519213D-04-0.000000000000D+00 9.000000000000D+03
    1.271536328125D+04 9.350328445435D-01-9.313225746155D-10 0.000000000000D+00
    8.726228515625D+03 2.625212669373D+00-9.313225746155D-10 2.000000000000D+00
    2.030520800781D+04-1.711486816406D+00-1.862645149231D-09 0.000000000000D+00
 8 15 03 02 03 15  0.0-2.637971192598D-05 0.000000000000D+00 1.080000000000D+04
   -6.262044921875D+03-3.065742492676D+00-0.000000000000D+00 0.000000000000D+00
    1.030010595703D+04-1.931123733521D-01 0.000000000000D+00 6.000000000000D+00
    2.252771044922D+04-7.637052536011D-01-2.793967723846D-09 0.000000000000D+00
 2 15 03 02 03 15  0.0 1.210430637002D-04 1.818989403546D-12 1.080000000000D+04
    2.470654687500D+04-6.586704254150D-01-9.313225746155D-10 0.000000000000D+00
    4.115808593750D+03-2.152900695801D-01-9.313225746155D-10-4.000000000000D+00
    4.945679687500D+03 3.487685203552D+00-0.000000000000D+00 0.000000000000D+00
 1 15 03 02 03 15  0.0-1.558186486363D-04 0.000000000000D+00 1.080000000000D+04
    1.288908251953D+04-2.651020050049D+00-9.313225746155D-10 0.000000000000D+00
    1.030788378906D+04-2.560167312622D-01-0.000000000000D+00 1.000000000000D+00
    1.943896337891D+04 1.894570350647D+00-1.862645149231D-09 0.000000000000D+00
15 15 03 02 03 15  0.0 4.006363451481D-05 9.094947017729D-13 1.080000000000D+04
    1.151442724609D+04 3.166399002075D-01 9.313225746155D-10 0.000000000000D+00
   -2.185046337891D+04-8.781080245972D-01-4.656612873077D-09 0.000000000000D+00
    6.604981445313D+03-3.450521469116D+00 9.313225746155D-10 0.000000000000D+00
17 15 03 02 03 15  0.0 1.508016139269D-04 9.094947017729D-13 1.080000000000D+04
    9.312081054688D+03 1.332866668701D+00 0.000000000000D+00 0.000000000000D+00
   -5.496016113281D+03 2.865369796753D+00-2.793967723846D-09 4.000000000000D+00
    2.313565283203D+04 1.416063308716D-01-1.862645149231D-09 0.000000000000D+00
23 15 03 02 03 15  0.0 3.149732947350D-05-3.637978807092D-12 1.080000000000D+04
    1.136722607422D+04 2.411985397339D-01-1.862645149231D-09 0.000000000000D+00
    2.280606933594D+04 6.427001953125D-02 1.862645149231D-09 3.000000000000D+00
    1.175598632813D+03-3.578664779663D+00-9.313225746155D-10 0.000000000000D+00
24 15 03 02 03 15  0.0-1.217760145664D-04-0.000000000000D+00 1.080000000000D+04
    1.456841699219D+04 1.085517883301D+00-9.313225746155D-10 0.000000000000D+00
    1.290458251953D+04 1.987306594849D+00-0.000000000000D+00 2.000000000000D+00
    1.647860839844D+04-2.512614250183D+00-1.862645149231D-09 0.000000000000D+00
 3 15 03 02 03 15  0.0 3.631133586168D-05 0.000000000000D+00 1.176000000000D+04
    2.180256152344D+04 1.720684051514D+00-9.313225746155D-10 0.000000000000D+00
   -4.356369140625D+03-6.210327148438D-03-9.313225746155D-10 5.000000000000D+00
   -1.249413378906D+04 2.994885444641D+00 1.862645149231D-09 0.000000000000D+00
17 15 03 02 03 45  0.0 1.508053392172D-04 9.094947017729D-13 1.260000000000D+04
    1.206293457031D+04 1.694976806641D+00-0.000000000000D+00 0.000000000000D+00
   -5.702358398438D+02 2.564272880554D+00-1.862645149231D-09 4.000000000000D+00
    2.249598828125D+04-8.478517532349D-01-1.862645149231D-09 0.000000000000D+00
 2 15 03 02 03 45  0.0 1.210477203131D-04 1.818989403546D-12 1.260000000000D+04
    2.274772949219D+04-1.499979019165D+00-9.313225746155D-10 0.000000000000D+00
    3.831488281250D+03-6.208229064941D-02-9.313225746155D-10-4.000000000000D+00
    1.095195605469D+04 3.142783164978D+00-9.313225746155D-10 0.000000000000D+00
 1 15 03 02 03 45  0.0-1.558139920235D-04 0.000000000000D+00 1.260000000000D+04
    7.746255859375D+03-3.016424179077D+00-9.313225746155D-10 0.000000000000D+00
    1.019811328125D+04 1.507272720337D-01 0.000000000000D+00 1.000000000000D+00
    2.205305126953D+04 9.911422729492D-01-2.793967723846D-09 0.000000000000D+00
 3 15 03 02 03 45  0.0 3.631319850683D-05 0.000000000000D+00 1.260000000000D+04
    2.418996142578D+04 9.099931716919D-01-9.313225746155D-10 0.000000000000D+00
   -4.579599609375D+03-2.050161361694D-01-9.313225746155D-10 5.000000000000D+00
   -6.689847167969D+03 3.412372589111D+00 9.313225746155D-10 0.000000000000D+00
24 15 03 02 03 45  0.0-1.217769458890D-04-0.000000000000D+00 1.260000000000D+04
    1.647183251953D+04 9.851484298706D-01-1.862645149231D-09 0.000000000000D+00
    1.580398437500D+04 1.222385406494D+00 9.313225746155D-10 2.000000000000D+00
    1.137689794922D+04-3.119084358215D+00-1.862645149231D-09 0.000000000000D+00
